KUIPER-00215            
1 67779U 26030R   26188.73024198  .00001601  00000+0  25910-3 0  9993
2 67779  51.8998  19.5933 0000581  77.2250 282.8776 14.76350033 23271
KUIPER-00218            
1 67780U 26030S   26188.76176294 -.00002666  00000+0 -32084-3 0  9997
2 67780  51.8973  34.6445 0000703  93.3586 266.7457 14.79924486 23065
KUIPER-00220            
1 67781U 26030T   26188.83337963 -.00039126  00000+0 -51070-2 0  9994
2 67781  51.8965   9.3687 0000898 263.1255 334.5165 14.80147275  5604
KUIPER-00222            
1 67782U 26030U   26188.80095286  .00002072  00000+0  30089-3 0  9997
2 67782  51.8986  29.6232 0000874 119.7259 240.3790 14.79917239 23132
KUIPER-00223            
1 67783U 26030V   26188.77525566  .00002083  00000+0  30229-3 0  9991
2 67783  51.9024  22.0252 0001524 146.0208 214.0852 14.79924268 23245
KUIPER-00225            
1 67784U 26030W   26188.76991600  .00002551  00000+0  36347-3 0  9994
2 67784  51.8991  27.2191 0000726  90.6414 269.4632 14.79932850 23160
KUIPER-00226            
1 67785U 26030X   26186.92712361  .00000040  00000+0  30863-4 0  9995
2 67785  51.8986  21.3410 0016743 116.0040 244.2652 14.87300843 23093
KUIPER-00259            
1 67786U 26030Y   26188.80363336 -.00000757  00000+0 -70302-4 0  9998
2 67786  51.9007  26.9729 0000924 112.2909 247.8152 14.79920715 23179
KUIPER-00260            
1 67787U 26030Z   26188.73881264  .00001085  00000+0  17140-3 0  9999
2 67787  51.9016  24.8536 0000690 110.8460 249.2576 14.79921923 23100
KUIPER-00262            
1 67788U 26030AA  26188.77255920 -.00002370  00000+0 -28188-3 0  9992
2 67788  51.9021  24.6167 0001047 147.3867 212.7160 14.79939197 23205
KUIPER-00266            
1 67789U 26030AB  26188.74149279 -.00002268  00000+0 -26853-3 0  9992
2 67789  51.9006  22.2537 0002478 148.4954 211.6157 14.79923059 23239
KUIPER-00268            
1 67790U 26030AC  26188.77789593 -.00015060  00000+0 -19508-2 0  9998
2 67790  51.9050  19.6067 0000529 130.4761 229.6248 14.79936226 23274
KUIPER-00270            
1 67791U 26030AD  26188.75491846  .00046216  00000+0  60591-2 0  9991
2 67791  51.8988   9.6971 0000669  54.8939 305.2086 14.79867911 23419
KUIPER-00274            
1 67792U 26030AE  26188.79824374  .00000852  00000+0  14084-3 0  9995
2 67792  51.9017  31.9984 0000860 141.7636 218.3387 14.79922650 23105
KUIPER-00275            
1 67793U 26030AF  26188.75226752  .00002757  00000+0  39052-3 0  9996
2 67793  51.8992  12.2118 0000764 127.1761 232.9271 14.79925114 23379
KUIPER-00276            
1 67794U 26030AG  26188.71312277  .00000254  00000+0  62365-4 0  9995
2 67794  51.9013  17.3672 0002889 120.2311 239.8938 14.79923092 23303
