{"fetched_at":"2026-07-08T07:03:33.083Z","source":"https://celestrak.org/NORAD/elements/gp.php?GROUP=kuiper&FORMAT=JSON","constellation":"kuiper","records":[{"OBJECT_NAME":"KUIPER-00215","OBJECT_ID":"2026-030R","EPOCH":"2026-07-07T17:31:32.907072","CLASSIFICATION_TYPE":"U","MEAN_MOTION":14.76350033,"ECCENTRICITY":0.0000581,"INCLINATION":51.8998,"RA_OF_ASC_NODE":19.5933,"ARG_OF_PERICENTER":77.225,"MEAN_ANOMALY":282.8776,"EPHEMERIS_TYPE":0,"NORAD_CAT_ID":67779,"ELEMENT_SET_NO":999,"REV_AT_EPOCH":2327,"BSTAR":0.0002591,"MEAN_MOTION_DOT":0.00001601,"MEAN_MOTION_DDOT":0},{"OBJECT_NAME":"KUIPER-00218","OBJECT_ID":"2026-030S","EPOCH":"2026-07-07T18:16:56.318016","CLASSIFICATION_TYPE":"U","MEAN_MOTION":14.79924486,"ECCENTRICITY":0.0000703,"INCLINATION":51.8973,"RA_OF_ASC_NODE":34.6445,"ARG_OF_PERICENTER":93.3586,"MEAN_ANOMALY":266.7457,"EPHEMERIS_TYPE":0,"NORAD_CAT_ID":67780,"ELEMENT_SET_NO":999,"REV_AT_EPOCH":2306,"BSTAR":-0.00032084,"MEAN_MOTION_DOT":-0.00002666,"MEAN_MOTION_DDOT":0},{"OBJECT_NAME":"KUIPER-00220","OBJECT_ID":"2026-030T","EPOCH":"2026-07-07T20:00:04.000032","CLASSIFICATION_TYPE":"U","MEAN_MOTION":14.80147275,"ECCENTRICITY":0.0000898,"INCLINATION":51.8965,"RA_OF_ASC_NODE":9.3687,"ARG_OF_PERICENTER":263.1255,"MEAN_ANOMALY":334.5165,"EPHEMERIS_TYPE":0,"NORAD_CAT_ID":67781,"ELEMENT_SET_NO":999,"REV_AT_EPOCH":560,"BSTAR":-0.005107,"MEAN_MOTION_DOT":-0.00039126,"MEAN_MOTION_DDOT":0},{"OBJECT_NAME":"KUIPER-00222","OBJECT_ID":"2026-030U","EPOCH":"2026-07-07T19:13:22.327104","CLASSIFICATION_TYPE":"U","MEAN_MOTION":14.79917239,"ECCENTRICITY":0.0000874,"INCLINATION":51.8986,"RA_OF_ASC_NODE":29.6232,"ARG_OF_PERICENTER":119.7259,"MEAN_ANOMALY":240.379,"EPHEMERIS_TYPE":0,"NORAD_CAT_ID":67782,"ELEMENT_SET_NO":999,"REV_AT_EPOCH":2313,"BSTAR":0.00030089,"MEAN_MOTION_DOT":0.00002072,"MEAN_MOTION_DDOT":0},{"OBJECT_NAME":"KUIPER-00223","OBJECT_ID":"2026-030V","EPOCH":"2026-07-07T18:36:22.089024","CLASSIFICATION_TYPE":"U","MEAN_MOTION":14.79924268,"ECCENTRICITY":0.0001524,"INCLINATION":51.9024,"RA_OF_ASC_NODE":22.0252,"ARG_OF_PERICENTER":146.0208,"MEAN_ANOMALY":214.0852,"EPHEMERIS_TYPE":0,"NORAD_CAT_ID":67783,"ELEMENT_SET_NO":999,"REV_AT_EPOCH":2324,"BSTAR":0.00030229,"MEAN_MOTION_DOT":0.00002083,"MEAN_MOTION_DDOT":0},{"OBJECT_NAME":"KUIPER-00225","OBJECT_ID":"2026-030W","EPOCH":"2026-07-07T18:28:40.742400","CLASSIFICATION_TYPE":"U","MEAN_MOTION":14.7993285,"ECCENTRICITY":0.0000726,"INCLINATION":51.8991,"RA_OF_ASC_NODE":27.2191,"ARG_OF_PERICENTER":90.6414,"MEAN_ANOMALY":269.4632,"EPHEMERIS_TYPE":0,"NORAD_CAT_ID":67784,"ELEMENT_SET_NO":999,"REV_AT_EPOCH":2316,"BSTAR":0.00036347,"MEAN_MOTION_DOT":0.00002551,"MEAN_MOTION_DDOT":0},{"OBJECT_NAME":"KUIPER-00226","OBJECT_ID":"2026-030X","EPOCH":"2026-07-05T22:15:03.479904","CLASSIFICATION_TYPE":"U","MEAN_MOTION":14.87300843,"ECCENTRICITY":0.0016743,"INCLINATION":51.8986,"RA_OF_ASC_NODE":21.341,"ARG_OF_PERICENTER":116.004,"MEAN_ANOMALY":244.2652,"EPHEMERIS_TYPE":0,"NORAD_CAT_ID":67785,"ELEMENT_SET_NO":999,"REV_AT_EPOCH":2309,"BSTAR":0.000030863,"MEAN_MOTION_DOT":4e-7,"MEAN_MOTION_DDOT":0},{"OBJECT_NAME":"KUIPER-00259","OBJECT_ID":"2026-030Y","EPOCH":"2026-07-07T19:17:13.922304","CLASSIFICATION_TYPE":"U","MEAN_MOTION":14.79920715,"ECCENTRICITY":0.0000924,"INCLINATION":51.9007,"RA_OF_ASC_NODE":26.9729,"ARG_OF_PERICENTER":112.2909,"MEAN_ANOMALY":247.8152,"EPHEMERIS_TYPE":0,"NORAD_CAT_ID":67786,"ELEMENT_SET_NO":999,"REV_AT_EPOCH":2317,"BSTAR":-0.000070302,"MEAN_MOTION_DOT":-0.00000757,"MEAN_MOTION_DDOT":0},{"OBJECT_NAME":"KUIPER-00260","OBJECT_ID":"2026-030Z","EPOCH":"2026-07-07T17:43:53.412096","CLASSIFICATION_TYPE":"U","MEAN_MOTION":14.79921923,"ECCENTRICITY":0.000069,"INCLINATION":51.9016,"RA_OF_ASC_NODE":24.8536,"ARG_OF_PERICENTER":110.846,"MEAN_ANOMALY":249.2576,"EPHEMERIS_TYPE":0,"NORAD_CAT_ID":67787,"ELEMENT_SET_NO":999,"REV_AT_EPOCH":2310,"BSTAR":0.0001714,"MEAN_MOTION_DOT":0.00001085,"MEAN_MOTION_DDOT":0},{"OBJECT_NAME":"KUIPER-00262","OBJECT_ID":"2026-030AA","EPOCH":"2026-07-07T18:32:29.114880","CLASSIFICATION_TYPE":"U","MEAN_MOTION":14.79939197,"ECCENTRICITY":0.0001047,"INCLINATION":51.9021,"RA_OF_ASC_NODE":24.6167,"ARG_OF_PERICENTER":147.3867,"MEAN_ANOMALY":212.716,"EPHEMERIS_TYPE":0,"NORAD_CAT_ID":67788,"ELEMENT_SET_NO":999,"REV_AT_EPOCH":2320,"BSTAR":-0.00028188,"MEAN_MOTION_DOT":-0.0000237,"MEAN_MOTION_DDOT":0},{"OBJECT_NAME":"KUIPER-00266","OBJECT_ID":"2026-030AB","EPOCH":"2026-07-07T17:47:44.977056","CLASSIFICATION_TYPE":"U","MEAN_MOTION":14.79923059,"ECCENTRICITY":0.0002478,"INCLINATION":51.9006,"RA_OF_ASC_NODE":22.2537,"ARG_OF_PERICENTER":148.4954,"MEAN_ANOMALY":211.6157,"EPHEMERIS_TYPE":0,"NORAD_CAT_ID":67789,"ELEMENT_SET_NO":999,"REV_AT_EPOCH":2323,"BSTAR":-0.00026853,"MEAN_MOTION_DOT":-0.00002268,"MEAN_MOTION_DDOT":0},{"OBJECT_NAME":"KUIPER-00268","OBJECT_ID":"2026-030AC","EPOCH":"2026-07-07T18:40:10.208352","CLASSIFICATION_TYPE":"U","MEAN_MOTION":14.79936226,"ECCENTRICITY":0.0000529,"INCLINATION":51.905,"RA_OF_ASC_NODE":19.6067,"ARG_OF_PERICENTER":130.4761,"MEAN_ANOMALY":229.6248,"EPHEMERIS_TYPE":0,"NORAD_CAT_ID":67790,"ELEMENT_SET_NO":999,"REV_AT_EPOCH":2327,"BSTAR":-0.0019508,"MEAN_MOTION_DOT":-0.0001506,"MEAN_MOTION_DDOT":0},{"OBJECT_NAME":"KUIPER-00270","OBJECT_ID":"2026-030AD","EPOCH":"2026-07-07T18:07:04.954944","CLASSIFICATION_TYPE":"U","MEAN_MOTION":14.79867911,"ECCENTRICITY":0.0000669,"INCLINATION":51.8988,"RA_OF_ASC_NODE":9.6971,"ARG_OF_PERICENTER":54.8939,"MEAN_ANOMALY":305.2086,"EPHEMERIS_TYPE":0,"NORAD_CAT_ID":67791,"ELEMENT_SET_NO":999,"REV_AT_EPOCH":2341,"BSTAR":0.0060591,"MEAN_MOTION_DOT":0.00046216,"MEAN_MOTION_DDOT":0},{"OBJECT_NAME":"KUIPER-00274","OBJECT_ID":"2026-030AE","EPOCH":"2026-07-07T19:09:28.259136","CLASSIFICATION_TYPE":"U","MEAN_MOTION":14.7992265,"ECCENTRICITY":0.000086,"INCLINATION":51.9017,"RA_OF_ASC_NODE":31.9984,"ARG_OF_PERICENTER":141.7636,"MEAN_ANOMALY":218.3387,"EPHEMERIS_TYPE":0,"NORAD_CAT_ID":67792,"ELEMENT_SET_NO":999,"REV_AT_EPOCH":2310,"BSTAR":0.00014084,"MEAN_MOTION_DOT":0.00000852,"MEAN_MOTION_DDOT":0},{"OBJECT_NAME":"KUIPER-00275","OBJECT_ID":"2026-030AF","EPOCH":"2026-07-07T18:03:15.913728","CLASSIFICATION_TYPE":"U","MEAN_MOTION":14.79925114,"ECCENTRICITY":0.0000764,"INCLINATION":51.8992,"RA_OF_ASC_NODE":12.2118,"ARG_OF_PERICENTER":127.1761,"MEAN_ANOMALY":232.9271,"EPHEMERIS_TYPE":0,"NORAD_CAT_ID":67793,"ELEMENT_SET_NO":999,"REV_AT_EPOCH":2337,"BSTAR":0.00039052,"MEAN_MOTION_DOT":0.00002757,"MEAN_MOTION_DDOT":0},{"OBJECT_NAME":"KUIPER-00276","OBJECT_ID":"2026-030AG","EPOCH":"2026-07-07T17:06:53.807328","CLASSIFICATION_TYPE":"U","MEAN_MOTION":14.79923092,"ECCENTRICITY":0.0002889,"INCLINATION":51.9013,"RA_OF_ASC_NODE":17.3672,"ARG_OF_PERICENTER":120.2311,"MEAN_ANOMALY":239.8938,"EPHEMERIS_TYPE":0,"NORAD_CAT_ID":67794,"ELEMENT_SET_NO":999,"REV_AT_EPOCH":2330,"BSTAR":0.000062365,"MEAN_MOTION_DOT":0.00000254,"MEAN_MOTION_DDOT":0}]}
